[{"OBJECT_NAME":"STARLINK-6334","OBJECT_ID":"2023-094W","EPOCH":"2026-03-09T05:12:12.864384","MEAN_MOTION":15.02533262,"ECCENTRICITY":0.00017208,"INCLINATION":43.0061,"RA_OF_ASC_NODE":20.339,"ARG_OF_PERICENTER":259.4052,"MEAN_ANOMALY":100.6597,"EPHEMERIS_TYPE":0,"CLASSIFICATION_TYPE":"U","NORAD_CAT_ID":57238,"ELEMENT_SET_NO":999,"REV_AT_EPOCH":14719,"BSTAR":2.2545842e-5,"MEAN_MOTION_DOT":1.01e-6,"MEAN_MOTION_DDOT":0},{"OBJECT_NAME":"THE ARAB SATELLITE 813","OBJECT_ID":"2025-292B","EPOCH":"2026-03-09T21:37:26.354208","MEAN_MOTION":15.05594469,"ECCENTRICITY":0.00142186,"INCLINATION":97.6379,"RA_OF_ASC_NODE":145.6178,"ARG_OF_PERICENTER":341.4344,"MEAN_ANOMALY":18.6363,"EPHEMERIS_TYPE":0,"CLASSIFICATION_TYPE":"U","NORAD_CAT_ID":66994,"ELEMENT_SET_NO":999,"REV_AT_EPOCH":1350,"BSTAR":0.00043840303,"MEAN_MOTION_DOT":6.274e-5,"MEAN_MOTION_DDOT":0}]
